QIANFAN-89              
1 63175U 25046S   25198.74702435  .00000116  00000+0  16030-3 0  9996
2 63175  88.9847 335.2782 0016464 186.6773 173.4161 13.50959441 27426
QIANFAN-90              
1 63176U 25046T   25198.55360406  .00000137  00000+0  19407-3 0  9998
2 63176  88.9847 335.2701 0013470 183.8756 176.2293 13.50957557 27414
